[{"OBJECT_NAME":"STARLINK-30287","OBJECT_ID":"2023-129M","EPOCH":"2026-03-09T03:42:02.676960","MEAN_MOTION":15.26742719,"ECCENTRICITY":0.00018099,"INCLINATION":43.0029,"RA_OF_ASC_NODE":120.6792,"ARG_OF_PERICENTER":270.9354,"MEAN_ANOMALY":89.129,"EPHEMERIS_TYPE":0,"CLASSIFICATION_TYPE":"U","NORAD_CAT_ID":57709,"ELEMENT_SET_NO":999,"REV_AT_EPOCH":14060,"BSTAR":2.6508797e-5,"MEAN_MOTION_DOT":4.51e-6,"MEAN_MOTION_DDOT":0},{"OBJECT_NAME":"CZ-2C R\/B","OBJECT_ID":"2017-085D","EPOCH":"2026-03-09T07:36:19.955232","MEAN_MOTION":15.36259494,"ECCENTRICITY":0.00550258,"INCLINATION":34.6583,"RA_OF_ASC_NODE":163.0948,"ARG_OF_PERICENTER":204.4819,"MEAN_ANOMALY":155.3278,"EPHEMERIS_TYPE":0,"CLASSIFICATION_TYPE":"U","NORAD_CAT_ID":43084,"ELEMENT_SET_NO":999,"REV_AT_EPOCH":45326,"BSTAR":0.00049058122,"MEAN_MOTION_DOT":0.00018774,"MEAN_MOTION_DDOT":0}]
